start=new Date('2022-11-29T00:00:00.000Z').valueOf();
sats=[{"ECCENTRICITY":"0.00019210","RA_OF_ASC_NODE":"224.3887","APOAPSIS":"548.569","SITE":"AFETR","EPOCH":"2022-11-27T18:01:02.074080","RCS_SIZE":"LARGE","TIME_SYSTEM":"UTC","PERIOD":"95.593","CENTER_NAME":"EARTH","MEAN_MOTION_DDOT":"0.0000000000000","GP_ID":"218988590","ELEMENT_SET_NO":"999","MEAN_MOTION":"15.06391668","DECAY_DATE":null,"OBJECT_NAME":"STARLINK-1193","COUNTRY_CODE":"US","TLE_LINE1":"1 45100U 20006BJ  22331.75071845 -.00000085  00000-0  13203-4 0  9993","NORAD_CAT_ID":"45100","PERIAPSIS":"545.909","REV_AT_EPOCH":"15646","INCLINATION":"53.0552","OBJECT_ID":"2020-006BJ","BSTAR":"0.00001320300000","SEMIMAJOR_AXIS":"6925.374","EPHEMERIS_TYPE":"0","LAUNCH_DATE":"2020-01-29","OBJECT_TYPE":"PAYLOAD","TLE_LINE2":"2 45100  53.0552 224.3887 0001921  51.3951 308.7209 15.06391668156469","REF_FRAME":"TEME","CLASSIFICATION_TYPE":"U","FILE":"3671921","ARG_OF_PERICENTER":"51.3951","MEAN_ELEMENT_THEORY":"SGP4","MEAN_ANOMALY":"308.7209","MEAN_MOTION_DOT":"-0.00000085"},{"CENTER_NAME":"EARTH","MEAN_MOTION_DDOT":"0.0000000000000","GP_ID":"218954339","ECCENTRICITY":"0.00017170","RA_OF_ASC_NODE":"225.8725","APOAPSIS":"548.394","SITE":"AFETR","EPOCH":"2022-11-27T09:56:38.769504","RCS_SIZE":"LARGE","TIME_SYSTEM":"UTC","PERIOD":"95.592","OBJECT_NAME":"STARLINK-1194","COUNTRY_CODE":"US","ELEMENT_SET_NO":"999","MEAN_MOTION":"15.06402941","DECAY_DATE":null,"EPHEMERIS_TYPE":"0","LAUNCH_DATE":"2020-01-29","OBJECT_TYPE":"PAYLOAD","REF_FRAME":"TEME","TLE_LINE2":"2 45101  53.0556 225.8725 0001717  60.3736 299.7424 15.06402941156415","TLE_LINE1":"1 45101U 20006BK  22331.41433761 -.00002791  00000-0 -16855-3 0  9998","NORAD_CAT_ID":"45101","PERIAPSIS":"546.015","REV_AT_EPOCH":"15641","INCLINATION":"53.0556","OBJECT_ID":"2020-006BK","BSTAR":"-0.00016855000000","SEMIMAJOR_AXIS":"6925.340","CLASSIFICATION_TYPE":"U","FILE":"3671616","ARG_OF_PERICENTER":"60.3736","MEAN_ANOMALY":"299.7424","MEAN_ELEMENT_THEORY":"SGP4","MEAN_MOTION_DOT":"-0.00002791"},{"FILE":"3671616","ARG_OF_PERICENTER":"68.0085","CLASSIFICATION_TYPE":"U","MEAN_ELEMENT_THEORY":"SGP4","MEAN_ANOMALY":"292.1106","MEAN_MOTION_DOT":"0.00002517","REV_AT_EPOCH":"15641","PERIAPSIS":"545.885","INCLINATION":"53.0535","TLE_LINE1":"1 45102U 20006BL  22331.43740387  .00002517  00000-0  18777-3 0  9995","NORAD_CAT_ID":"45102","SEMIMAJOR_AXIS":"6925.337","OBJECT_ID":"2020-006BL","BSTAR":"0.00018777000000","OBJECT_TYPE":"PAYLOAD","EPHEMERIS_TYPE":"0","LAUNCH_DATE":"2020-01-29","TLE_LINE2":"2 45102  53.0535 225.7832 0001903  68.0085 292.1106 15.06403624156413","REF_FRAME":"TEME","ELEMENT_SET_NO":"999","MEAN_MOTION":"15.06403624","DECAY_DATE":null,"OBJECT_NAME":"STARLINK-1195","COUNTRY_CODE":"US","SITE":"AFETR","EPOCH":"2022-11-27T10:29:51.694368","ECCENTRICITY":"0.00019030","RA_OF_ASC_NODE":"225.7832","APOAPSIS":"548.520","TIME_SYSTEM":"UTC","PERIOD":"95.592","RCS_SIZE":"LARGE","GP_ID":"218955588","MEAN_MOTION_DDOT":"0.0000000000000","CENTER_NAME":"EARTH"},{"MEAN_ANOMALY":"281.3964","MEAN_ELEMENT_THEORY":"SGP4","MEAN_MOTION_DOT":"-0.00001405","CLASSIFICATION_TYPE":"U","FILE":"3671921","ARG_OF_PERICENTER":"78.7220","TLE_LINE2":"2 45103  53.0543 224.4334 0001737  78.7220 281.3964 15.06388493156463","REF_FRAME":"TEME","EPHEMERIS_TYPE":"0","LAUNCH_DATE":"2020-01-29","OBJECT_TYPE":"PAYLOAD","OBJECT_ID":"2020-006BM","BSTAR":"-0.00007546500000","SEMIMAJOR_AXIS":"6925.384","TLE_LINE1":"1 45103U 20006BM  22331.73503275 -.00001405  00000-0 -75465-4 0  9997","NORAD_CAT_ID":"45103","REV_AT_EPOCH":"15646","PERIAPSIS":"546.046","INCLINATION":"53.0543","COUNTRY_CODE":"US","OBJECT_NAME":"STARLINK-1196","DECAY_DATE":null,"ELEMENT_SET_NO":"999","MEAN_MOTION":"15.06388493","CENTER_NAME":"EARTH","GP_ID":"218987840","MEAN_MOTION_DDOT":"0.0000000000000","RCS_SIZE":"LARGE","TIME_SYSTEM":"UTC","PERIOD":"95.593","ECCENTRICITY":"0.00017370","APOAPSIS":"548.452","RA_OF_ASC_NODE":"224.4334","SITE":"AFETR","EPOCH":"2022-11-27T17:38:26.829600"},{"OBJECT_NAME":"STARLINK-1138","COUNTRY_CODE":"US","ELEMENT_SET_NO":"999","MEAN_MOTION":"15.06393038","DECAY_DATE":null,"CENTER_NAME":"EARTH","GP_ID":"218988847","MEAN_MOTION_DDOT":"0.0000000000000","ECCENTRICITY":"0.00014400","RA_OF_ASC_NODE":"23.9146","APOAPSIS":"548.232","SITE":"AFETR","EPOCH":"2022-11-27T20:29:38.937696","RCS_SIZE":"LARGE","TIME_SYSTEM":"UTC","PERIOD":"95.593","CLASSIFICATION_TYPE":"U","FILE":"3671921","ARG_OF_PERICENTER":"78.0488","MEAN_ANOMALY":"282.0663","MEAN_ELEMENT_THEORY":"SGP4","MEAN_MOTION_DOT":"-0.00000464","EPHEMERIS_TYPE":"0","LAUNCH_DATE":"2020-02-17","OBJECT_TYPE":"PAYLOAD","REF_FRAME":"TEME","TLE_LINE2":"2 45178  53.0552  23.9146 0001440  78.0488 282.0663 15.06393038154236","TLE_LINE1":"1 45178U 20012A   22331.85392289 -.00000464  00000-0 -12229-4 0  9993","NORAD_CAT_ID":"45178","REV_AT_EPOCH":"15423","PERIAPSIS":"546.238","INCLINATION":"53.0552","OBJECT_ID":"2020-012A","BSTAR":"-0.00001222900000","SEMIMAJOR_AXIS":"6925.370"},{"TLE_LINE2":"2 45179  53.0556  23.9044 0001638  69.2848 290.8317 15.06399596154293","REF_FRAME":"TEME","EPHEMERIS_TYPE":"0","LAUNCH_DATE":"2020-02-17","OBJECT_TYPE":"PAYLOAD","OBJECT_ID":"2020-012B","BSTAR":"-0.00007265900000","SEMIMAJOR_AXIS":"6925.350","TLE_LINE1":"1 45179U 20012B   22331.85666572 -.00001364  00000-0 -72659-4 0  9996","NORAD_CAT_ID":"45179","INCLINATION":"53.0556","PERIAPSIS":"546.080","REV_AT_EPOCH":"15429","MEAN_ELEMENT_THEORY":"SGP4","MEAN_ANOMALY":"290.8317","MEAN_MOTION_DOT":"-0.00001364","CLASSIFICATION_TYPE":"U","FILE":"3671921","ARG_OF_PERICENTER":"69.2848","CENTER_NAME":"EARTH","GP_ID":"218987097","MEAN_MOTION_DDOT":"0.0000000000000","RCS_SIZE":"LARGE","PERIOD":"95.592","TIME_SYSTEM":"UTC","ECCENTRICITY":"0.00016380","RA_OF_ASC_NODE":"23.9044","APOAPSIS":"548.349","SITE":"AFETR","EPOCH":"2022-11-27T20:33:35.918208","COUNTRY_CODE":"US","OBJECT_NAME":"STARLINK-1143","DECAY_DATE":null,"ELEMENT_SET_NO":"999","MEAN_MOTION":"15.06399596"},{"ELEMENT_SET_NO":"999","MEAN_MOTION":"15.15442232","DECAY_DATE":null,"OBJECT_NAME":"STARLINK-1192","COUNTRY_CODE":"US","ECCENTRICITY":"0.00024090","RA_OF_ASC_NODE":"15.1090","APOAPSIS":"521.300","SITE":"AFETR","EPOCH":"2022-11-28T03:05:39.075936","RCS_SIZE":"LARGE","PERIOD":"95.022","TIME_SYSTEM":"UTC","CENTER_NAME":"EARTH","MEAN_MOTION_DDOT":"0.0000000000000","GP_ID":"218997388","CLASSIFICATION_TYPE":"U","FILE":"3672054","ARG_OF_PERICENTER":"53.2244","MEAN_ANOMALY":"306.8969","MEAN_ELEMENT_THEORY":"SGP4","MEAN_MOTION_DOT":"0.00020119","TLE_LINE1":"1 45180U 20012C   22332.12892449  .00020119  00000-0  10647-2 0  9997","NORAD_CAT_ID":"45180","PERIAPSIS":"517.977","INCLINATION":"53.0504","REV_AT_EPOCH":"15379","OBJECT_ID":"2020-012C","BSTAR":"0.00106470000000","SEMIMAJOR_AXIS":"6897.773","EPHEMERIS_TYPE":"0","LAUNCH_DATE":"2020-02-17","OBJECT_TYPE":"PAYLOAD","REF_FRAME":"TEME","TLE_LINE2":"2 45180  53.0504  15.1090 0002409  53.2244 306.8969 15.15442232153793"},{"SITE":"AFETR","EPOCH":"2022-11-28T08:58:02.392320","ECCENTRICITY":"0.00014990","RA_OF_ASC_NODE":"21.5850","APOAPSIS":"548.257","PERIOD":"95.592","TIME_SYSTEM":"UTC","RCS_SIZE":"LARGE","MEAN_MOTION_DDOT":"0.0000000000000","GP_ID":"219003243","CENTER_NAME":"EARTH","ELEMENT_SET_NO":"999","MEAN_MOTION":"15.06398105","DECAY_DATE":null,"OBJECT_NAME":"STARLINK-1200","COUNTRY_CODE":"US","PERIAPSIS":"546.181","INCLINATION":"53.0542","REV_AT_EPOCH":"15372","TLE_LINE1":"1 45181U 20012D   22332.37363880  .00000356  00000-0  42775-4 0  9997","NORAD_CAT_ID":"45181","SEMIMAJOR_AXIS":"6925.354","OBJECT_ID":"2020-012D","BSTAR":"0.00004277500000","OBJECT_TYPE":"PAYLOAD","EPHEMERIS_TYPE":"0","LAUNCH_DATE":"2020-02-17","TLE_LINE2":"2 45181  53.0542  21.5850 0001499  63.4015 296.7127 15.06398105153723","REF_FRAME":"TEME","FILE":"3672344","ARG_OF_PERICENTER":"63.4015","CLASSIFICATION_TYPE":"U","MEAN_ELEMENT_THEORY":"SGP4","MEAN_ANOMALY":"296.7127","MEAN_MOTION_DOT":"0.00000356"},{"RA_OF_ASC_NODE":"1.4808","APOAPSIS":"548.403","ECCENTRICITY":"0.00016720","EPOCH":"2022-11-28T09:27:14.383872","SITE":"AFETR","RCS_SIZE":"LARGE","TIME_SYSTEM":"UTC","PERIOD":"95.593","CENTER_NAME":"EARTH","MEAN_MOTION_DDOT":"0.0000000000000","GP_ID":"219003092","MEAN_MOTION":"15.06389574","ELEMENT_SET_NO":"999","DECAY_DATE":null,"OBJECT_NAME":"STARLINK-1201","COUNTRY_CODE":"US","NORAD_CAT_ID":"45182","TLE_LINE1":"1 45182U 20012E   22332.39391648  .00000210  00000-0  33026-4 0  9991","PERIAPSIS":"546.088","REV_AT_EPOCH":"15401","INCLINATION":"53.0573","BSTAR":"0.00003302600000","OBJECT_ID":"2020-012E","SEMIMAJOR_AXIS":"6925.381","LAUNCH_DATE":"2020-02-17","EPHEMERIS_TYPE":"0","OBJECT_TYPE":"PAYLOAD","TLE_LINE2":"2 45182  53.0573   1.4808 0001672  61.1652 298.9505 15.06389574154010","REF_FRAME":"TEME","CLASSIFICATION_TYPE":"U","ARG_OF_PERICENTER":"61.1652","FILE":"3672344","MEAN_MOTION_DOT":"0.00000210","MEAN_ELEMENT_THEORY":"SGP4","MEAN_ANOMALY":"298.9505"},{"MEAN_MOTION_DDOT":"0.0000000000000","GP_ID":"219008187","CENTER_NAME":"EARTH","EPOCH":"2022-11-28T14:37:43.321152","SITE":"AFETR","APOAPSIS":"548.235","RA_OF_ASC_NODE":"20.5252","ECCENTRICITY":"0.00015240","TIME_SYSTEM":"UTC","PERIOD":"95.591","RCS_SIZE":"LARGE","OBJECT_NAME":"STARLINK-1202","COUNTRY_CODE":"US","MEAN_MOTION":"15.06411108","ELEMENT_SET_NO":"999","DECAY_DATE":null,"OBJECT_TYPE":"PAYLOAD","LAUNCH_DATE":"2020-02-17","EPHEMERIS_TYPE":"0","REF_FRAME":"TEME","TLE_LINE2":"2 45183  53.0556  20.5252 0001524  56.0173 304.0961 15.06411108153758","PERIAPSIS":"546.124","INCLINATION":"53.0556","REV_AT_EPOCH":"15375","NORAD_CAT_ID":"45183","TLE_LINE1":"1 45183U 20012F   22332.60952918 -.00002577  00000-0 -15410-3 0  9995","SEMIMAJOR_AXIS":"6925.315","BSTAR":"-0.00015410000000","OBJECT_ID":"2020-012F","ARG_OF_PERICENTER":"56.0173","FILE":"3672593","CLASSIFICATION_TYPE":"U","MEAN_MOTION_DOT":"-0.00002577","MEAN_ELEMENT_THEORY":"SGP4","MEAN_ANOMALY":"304.0961"}];
